ONEWEB-0415             
1 51624U 22012C   24159.33457653 -.00000437  00000+0 -12890-2 0  9999
2 51624  87.8941 183.3706 0002052  81.6000 278.5360 13.10375740112397
ONEWEB-0416             
1 51625U 22012D   24159.34621380  .00000130  00000+0  33479-3 0  9996
2 51625  87.8953 183.3626 0002017  92.1961 267.9397 13.10375982112431
ONEWEB-0422             
1 51626U 22012E   24159.38121468  .00000021  00000+0  19865-4 0  9996
2 51626  87.9159 153.1143 0002760  94.8289 265.3157 13.17648778116384
ONEWEB-0423             
1 51627U 22012F   24159.37486629  .00000021  00000+0  21408-4 0  9995
2 51627  87.9162 153.1164 0002090  91.5206 268.6165 13.17646584116277
ONEWEB-0425             
1 51628U 22012G   24159.35618177  .00000562  00000+0  15725-2 0  9992
2 51628  87.8945 183.3444 0001823 101.5450 258.5882 13.10374626112434
ONEWEB-0428             
1 51629U 22012H   24159.33623609 -.00000771  00000+0 -22455-2 0  9999
2 51629  87.8947 183.3637 0002379  88.6340 271.5060 13.10376209112398
ONEWEB-0431             
1 51630U 22012J   24159.76438664  .00000181  00000+0  48117-3 0  9990
2 51630  87.8931 183.2769 0002567  79.1676 280.9740 13.10370667113790
ONEWEB-0434             
1 51631U 22012K   24159.35950313  .00000705  00000+0  19845-2 0  9993
2 51631  87.8947 183.3707 0002229  94.9987 265.1395 13.10374273112434
